{
  "norad_id": 66141,
  "name": "STARLINK-35603",
  "history": [
    {
      "epoch": "2026-03-28T21:00:30.745440Z",
      "apogee_km": 476.01518008945186,
      "perigee_km": 474.3898420910009,
      "latitude_deg": -6.859847372430757e-06,
      "longitude_deg": 169.39246287629646,
      "height_km": 476.0305676785691,
      "semi_major_axis_km": 6853.339511090226,
      "eccentricity": 0.00011858,
      "inclination_deg": 53.1605,
      "raan_deg": 310.8101,
      "arg_perigee_deg": 85.0447,
      "mean_anomaly_deg": 275.0689,
      "mean_motion_rev_day": 15.30204206
    },
    {
      "epoch": "2026-03-29T00:08:37.054752Z",
      "apogee_km": 475.95020627514623,
      "perigee_km": 474.4287677950242,
      "latitude_deg": -3.939046104274598e-05,
      "longitude_deg": 121.63189639074135,
      "height_km": 476.0260177975741,
      "semi_major_axis_km": 6853.326487035085,
      "eccentricity": 0.000111,
      "inclination_deg": 53.1604,
      "raan_deg": 310.2046,
      "arg_perigee_deg": 85.3387,
      "mean_anomaly_deg": 274.774,
      "mean_motion_rev_day": 15.30208568
    }
  ]
}